     3.04           N: GNSS NAV DATA    M: MIXED            RINEX VERSION / TYPE
sbf2rin-13.8.0                          20251009 205106 UTC PGM / RUN BY / DATE 
GPSA   2.2352E-08  1.4901E-08 -1.1921E-07 -1.1921E-07       IONOSPHERIC CORR    
GPSB   1.2902E+05  0.0000E+00 -2.6214E+05  2.6214E+05       IONOSPHERIC CORR    
GAL    1.2600E+02 -1.5625E-02  1.9104E-02  0.0000E+00       IONOSPHERIC CORR    
GPUT  9.3132257462E-10 2.664535259E-15  61440 2385          TIME SYSTEM CORR    
GAUT -9.3132257462E-10 0.000000000E+00 432000 2384          TIME SYSTEM CORR    
GAGP -1.4842953533E-09 2.664535259E-15 518400 2384          TIME SYSTEM CORR    
    18                                                      LEAP SECONDS        
                                                            END OF HEADER       
E05 2025 09 19 18 40 00 4.885684757028E-03 2.955857780762E-12 0.000000000000E+00
     7.000000000000E+01-1.528125000000E+02 3.342996392075E-09-3.106333478115E-02
    -7.191672921181E-06 2.075546653941E-04 5.232170224190E-06 5.440618036270E+03
     4.992000000000E+05 5.401670932770E-08 2.014670126183E+00 3.166496753693E-08
     9.653906709107E-01 2.292187500000E+02 8.832393285204E-01-5.928461229921E-09
    -4.260891768959E-10 5.170000000000E+02 2.384000000000E+03
     3.120000000000E+00 0.000000000000E+00 2.561137080193E-09 2.793967723846E-09
     4.998650000000E+05
E36 2025 09 19 18 40 00-4.542142851278E-04-5.456968210638E-12 0.000000000000E+00
     7.000000000000E+01 9.956250000000E+01 2.034727611715E-09-1.674169968676E+00
     4.621222615242E-06 1.568318111822E-04 1.402013003826E-05 5.440611129761E+03
     4.992000000000E+05 6.891787052155E-08-7.079951356392E-02 3.911554813385E-08
     9.995663829234E-01 5.700000000000E+01-1.669943646622E+00-5.087711923623E-09
     9.893269237232E-11 5.170000000000E+02 2.384000000000E+03
     3.120000000000E+00 0.000000000000E+00 4.889443516731E-09 5.355104804039E-09
     4.998650000000E+05
E03 2025 09 19 18 40 00-2.175814588554E-04-2.373212737439E-12 0.000000000000E+00
     7.000000000000E+01-1.619375000000E+02 3.434071614295E-09-8.723688684993E-01
    -7.484108209610E-06 4.762227181345E-04 4.837289452553E-06 5.440614189148E+03
     4.992000000000E+05 3.911554813385E-08 2.014661579816E+00 3.352761268616E-08
     9.653772106015E-01 2.432500000000E+02 9.432825525788E-01-5.924889652579E-09
    -3.989451890970E-10 5.170000000000E+02 2.384000000000E+03
     3.120000000000E+00 0.000000000000E+00 2.328306436539E-09 2.328306436539E-09
     4.998650000000E+05
E15 2025 09 19 18 40 00-2.011967590079E-04-2.586375558167E-12 0.000000000000E+00
     7.000000000000E+01 6.537500000000E+01 2.058657179906E-09 3.095172513285E+00
     2.998858690262E-06 2.527231117710E-04 1.476332545280E-05 5.440612771988E+03
     4.992000000000E+05 9.313225746155E-09-7.087866035785E-02-6.332993507385E-08
     9.995183889700E-01 3.950000000000E+01-1.721529110746E+00-5.061282251293E-09
     2.821546100149E-11 5.170000000000E+02 2.384000000000E+03
     3.120000000000E+00 0.000000000000E+00 4.889443516731E-09 5.122274160385E-09
     4.998650000000E+05
E06 2025 09 19 18 40 00-1.701811561361E-04-4.831690603169E-12 0.000000000000E+00
     7.000000000000E+01-1.414062500000E+02 3.521932416908E-09 3.882951482229E-01
    -6.522983312607E-06 5.784349050373E-04 5.051493644714E-06 5.440612831116E+03
     4.992000000000E+05-6.705522537231E-08 2.015919699604E+00 2.980232238770E-08
     9.586801925352E-01 2.300312500000E+02 1.632102827428E+00-5.929889860858E-09
    -3.521575259173E-10 5.170000000000E+02 2.384000000000E+03
     3.120000000000E+00 0.000000000000E+00 2.095475792885E-09 3.259629011154E-09
     4.998650000000E+05
E05 2025 09 19 18 40 00 4.885684058536E-03 2.955857780762E-12 0.000000000000E+00
     7.000000000000E+01-1.528125000000E+02 3.342996392075E-09-3.106333478115E-02
    -7.191672921181E-06 2.075546653941E-04 5.232170224190E-06 5.440618036270E+03
     4.992000000000E+05 5.401670932770E-08 2.014670126183E+00 3.166496753693E-08
     9.653906709107E-01 2.292187500000E+02 8.832393285204E-01-5.928461229921E-09
    -4.260891768959E-10 2.580000000000E+02 2.384000000000E+03
     3.120000000000E+00 0.000000000000E+00 2.561137080193E-09 0.000000000000E+00
     4.999400000000E+05
E36 2025 09 19 18 40 00-4.542152164504E-04-5.442757355922E-12 0.000000000000E+00
     7.000000000000E+01 9.956250000000E+01 2.034727611715E-09-1.674169968676E+00
     4.621222615242E-06 1.568318111822E-04 1.402013003826E-05 5.440611129761E+03
     4.992000000000E+05 6.891787052155E-08-7.079951356392E-02 3.911554813385E-08
     9.995663829234E-01 5.700000000000E+01-1.669943646622E+00-5.087711923623E-09
     9.893269237232E-11 2.580000000000E+02 2.384000000000E+03
     3.120000000000E+00 0.000000000000E+00 4.889443516731E-09 0.000000000000E+00
     4.999400000000E+05
E03 2025 09 19 18 40 00-2.175819827244E-04-2.373212737439E-12 0.000000000000E+00
     7.000000000000E+01-1.619375000000E+02 3.434071614295E-09-8.723688684993E-01
    -7.484108209610E-06 4.762227181345E-04 4.837289452553E-06 5.440614189148E+03
     4.992000000000E+05 3.911554813385E-08 2.014661579816E+00 3.352761268616E-08
     9.653772106015E-01 2.432500000000E+02 9.432825525788E-01-5.924889652579E-09
    -3.989451890970E-10 2.580000000000E+02 2.384000000000E+03
     3.120000000000E+00 0.000000000000E+00 2.328306436539E-09 0.000000000000E+00
     4.999400000000E+05
E15 2025 09 19 18 40 00-2.011974574998E-04-2.586375558167E-12 0.000000000000E+00
     7.000000000000E+01 6.537500000000E+01 2.058657179906E-09 3.095172513285E+00
     2.998858690262E-06 2.527231117710E-04 1.476332545280E-05 5.440612771988E+03
     4.992000000000E+05 9.313225746155E-09-7.087866035785E-02-6.332993507385E-08
     9.995183889700E-01 3.950000000000E+01-1.721529110746E+00-5.061282251293E-09
     2.821546100149E-11 2.580000000000E+02 2.384000000000E+03
     3.120000000000E+00 0.000000000000E+00 4.889443516731E-09 0.000000000000E+00
     4.999400000000E+05
E06 2025 09 19 18 40 00-1.701827277429E-04-4.831690603169E-12 0.000000000000E+00
     7.000000000000E+01-1.414062500000E+02 3.521932416908E-09 3.882951482229E-01
    -6.522983312607E-06 5.784349050373E-04 5.051493644714E-06 5.440612831116E+03
     4.992000000000E+05-6.705522537231E-08 2.015919699604E+00 2.980232238770E-08
     9.586801925352E-01 2.300312500000E+02 1.632102827428E+00-5.929889860858E-09
    -3.521575259173E-10 2.580000000000E+02 2.384000000000E+03
     3.120000000000E+00 0.000000000000E+00 2.095475792885E-09 0.000000000000E+00
     4.999400000000E+05
E14 2025 09 19 18 40 00 1.413702731952E-03 4.866080871579E-10 3.469446951954E-18
     7.000000000000E+01-4.228125000000E+01 8.547498894781E-09-3.995018160771E-01
    -3.008171916008E-06 1.638624041807E-01 2.061948180199E-06 5.289296491623E+03
     4.992000000000E+05 1.676380634308E-06-1.214189507067E+00-4.842877388000E-07
     8.579960202124E-01 2.591875000000E+02 2.964296715177E+00-1.258480992213E-08
    -4.728768400756E-10 5.170000000000E+02 2.384000000000E+03
     3.120000000000E+00 1.300000000000E+02-1.862645149231E-09-3.026798367500E-09
     5.003150000000E+05
E14 2025 09 19 18 40 00 1.413703430444E-03 4.866080871579E-10 3.469446951954E-18
     7.000000000000E+01-4.228125000000E+01 8.547498894781E-09-3.995018160771E-01
    -3.008171916008E-06 1.638624041807E-01 2.061948180199E-06 5.289296491623E+03
     4.992000000000E+05 1.676380634308E-06-1.214189507067E+00-4.842877388000E-07
     8.579960202124E-01 2.591875000000E+02 2.964296715177E+00-1.258480992213E-08
    -4.728768400756E-10 2.580000000000E+02 2.384000000000E+03
     3.120000000000E+00 1.600000000000E+01-1.862645149231E-09 0.000000000000E+00
     5.003900000000E+05
E14 2025 09 19 18 50 00 1.413994701579E-03 4.866080871579E-10 3.469446951954E-18
     7.100000000000E+01-4.303125000000E+01 8.435708523977E-09-3.185444254996E-01
    -3.051012754440E-06 1.638633097755E-01 1.868233084679E-06 5.289298946381E+03
     4.998000000000E+05 1.793727278709E-06-1.214197621873E+00-4.954636096954E-07
     8.579962864635E-01 2.627812500000E+02 2.964297111627E+00-1.241337420972E-08
    -4.664480008601E-10 5.170000000000E+02 2.384000000000E+03
     3.120000000000E+00 1.300000000000E+02-1.862645149231E-09-3.026798367500E-09
     5.004650000000E+05
E05 2025 09 19 18 50 00 4.885686677881E-03 2.970068635477E-12 0.000000000000E+00
     7.100000000000E+01-1.528437500000E+02 3.336924710594E-09 4.305096974855E-02
    -7.193535566330E-06 2.076171804219E-04 5.245208740234E-06 5.440618202209E+03
     4.998000000000E+05 5.587935447693E-08 2.014666540571E+00 4.097819328308E-08
     9.653903871046E-01 2.285000000000E+02 8.835104350359E-01-5.928461229921E-09
    -4.203746531488E-10 5.170000000000E+02 2.384000000000E+03
     3.120000000000E+00 0.000000000000E+00 2.561137080193E-09 2.793967723846E-09
     5.004650000000E+05
E36 2025 09 19 18 50 00-4.542175447568E-04-5.456968210638E-12 0.000000000000E+00
     7.100000000000E+01 1.002812500000E+02 2.032227507576E-09-1.599295404639E+00
     4.647299647331E-06 1.568910665810E-04 1.400895416737E-05 5.440611320496E+03
     4.998000000000E+05 7.078051567078E-08-7.080256374812E-02 3.539025783539E-08
     9.995664194964E-01 5.734375000000E+01-1.670433314561E+00-5.090569185497E-09
     1.007184810433E-10 5.170000000000E+02 2.384000000000E+03
     3.120000000000E+00 0.000000000000E+00 4.889443516731E-09 5.355104804039E-09
     5.004650000000E+05
E15 2025 09 19 18 50 00-2.011983306147E-04-2.586375558167E-12 0.000000000000E+00
     7.100000000000E+01 6.662500000000E+01 2.066157492324E-09-3.114069450361E+00
     3.054738044739E-06 2.528753830120E-04 1.472234725952E-05 5.440612401962E+03
     4.998000000000E+05 2.048909664154E-08-7.088163593322E-02-6.519258022308E-08
     9.995184255430E-01 4.040625000000E+01-1.721087890265E+00-5.065210986369E-09
     2.214377952016E-11 5.170000000000E+02 2.384000000000E+03
     3.120000000000E+00 0.000000000000E+00 4.889443516731E-09 5.122274160385E-09
     5.004650000000E+05
